
2015030100 - SABZ21 SBFZ 010000
2015030100 - METAR SBFZ 010000Z 00000KT CAVOK 26/23 Q1012=
2015030101 - SABZ21 SBFZ 010100
2015030101 - METAR SBFZ 010100Z 00000KT 9999 FEW020 25/23 Q1012=
2015030102 - SABZ21 SBFZ 010200
2015030102 - METAR SBFZ 010200Z 22003KT CAVOK 25/23 Q1012=
2015030103 - SABZ21 SBFZ 010300
2015030103 - METAR SBFZ 010300Z 23003KT CAVOK 25/23 Q1012=
2015030104 - SABZ21 SBFZ 010400
2015030104 - METAR SBFZ 010400Z 00000KT CAVOK 24/23 Q1011=
2015030105 - SABZ21 SBFZ 010500
2015030105 - METAR SBFZ 010500Z 00000KT CAVOK 24/23 Q1010=
2015030106 - SABZ21 SBFZ 010600
2015030106 - METAR SBFZ 010600Z 00000KT CAVOK 24/23 Q1010=
2015030107 - SABZ21 SBFZ 010700
2015030107 - METAR SBFZ 010700Z 22003KT 9999 SCT015 24/22 Q1011=
2015030108 - SABZ21 SBFZ 010800
2015030108 - METAR SBFZ 010800Z 23003KT 9999 FEW020 24/22 Q1011=
2015030109 - SABZ21 SBFZ 010900
2015030109 - METAR SBFZ 010900Z 16003KT 9999 SCT020 23/22 Q1012=
2015030110 - SABZ21 SBFZ 011000
2015030110 - METAR SBFZ 011000Z 00000KT 9999 SCT020 FEW030TCU 24/23 Q1012=
2015030111 - SABZ21 SBFZ 011100
2015030111 - METAR SBFZ 011100Z 15002KT 9999 FEW020 27/23 Q1013=
2015030111 - SPECI SBFZ 011129Z 04006KT 9999 VCSH BKN012 SCT025TCU 26/23 Q1013=
2015030112 - SABZ21 SBFZ 011200
2015030112 - METAR SBFZ 011200Z 06007KT 9999 SCT012 SCT025TCU 27/23 Q1013=
2015030113 - SABZ21 SBFZ 011300
2015030113 - METAR SBFZ 011300Z 09009KT 9999 BKN017 FEW025TCU 29/22 Q1013=
2015030114 - SABZ21 SBFZ 011400
2015030114 - METAR SBFZ 011400Z 03007KT 9999 BKN018 FEW025TCU 29/22 Q1013=
2015030115 - SABZ21 SBFZ 011500
2015030115 - METAR SBFZ 011500Z 08010KT 9999 BKN018 FEW030TCU 29/22 Q1012=
2015030116 - SABZ21 SBFZ 011600
2015030116 - METAR SBFZ 011600Z 08008KT 9999 BKN020 FEW030TCU 29/23 Q1011=
2015030117 - SABZ21 SBFZ 011700
2015030117 - METAR SBFZ 011700Z 08010KT 9999 BKN020 29/21 Q1010=
2015030118 - SABZ21 SBFZ 011800
2015030118 - METAR SBFZ 011800Z 08011KT 9999 SCT020 29/21 Q1010=
2015030119 - SABZ21 SBFZ 011900
2015030119 - METAR SBFZ 011900Z 07008KT 9999 SCT020 BKN090 28/20 Q1010=
2015030120 - SABZ21 SBFZ 012000
2015030120 - METAR SBFZ 012000Z 08008KT 9999 SCT020 BKN090 28/21 Q1010=
2015030121 - SABZ21 SBFZ 012100
2015030121 - METAR SBFZ 012100Z 07007KT 9999 FEW025 27/21 Q1010=
2015030122 - SABZ21 SBFZ 012200
2015030122 - METAR SBFZ 012200Z 07004KT 9999 FEW017 27/21 Q1011=
2015030123 - SABZ21 SBFZ 012300
2015030123 - METAR SBFZ 012300Z 07005KT 9999 FEW017 27/21 Q1011=
2020082716 - SABZ21 SBFZ 271600
2020082716 - METAR SBFZ 271600Z 10021KT 9999 FEW030 30/19 Q1012=
2020082716 - SABZ21 SBFZ 271600
2020082716 - METAR SBFZ 271600Z 10021KT 9999 FEW030 30/19 Q1012=
2020082716 - SABZ21 SBFZ 271600
2020082716 - METAR SBFZ 271600Z 10021KT 9999 FEW030 30/19 Q1012=
2020082716 - SABZ21 SBFZ 271600
2020082716 - METAR SBFZ 271600Z 10021KT 9999 FEW030 30/19 Q1012=
2020082716 - SABZ21 SBFZ 271600
2020082716 - METAR SBFZ 271600Z 10021KT 9999 FEW030 30/19 Q1012=
2020082716 - SABZ21 SBFZ 271600
2020082716 - METAR SBFZ 271600Z 10021KT 9999 FEW030 30/19 Q1012=
2020082716 - SABZ21 SBFZ 271600
2020082716 - METAR SBFZ 271600Z 10021KT 9999 FEW030 30/19 Q1012=
2020082716 - SABZ21 SBFZ 271600
2020082716 - METAR SBFZ 271600Z 10021KT 9999 FEW030 30/19 Q1012=
2020082716 - SABZ21 SBFZ 271600
2020082716 - METAR SBFZ 271600Z 10021KT 9999 FEW030 30/19 Q1012=
2020082716 - SABZ21 SBFZ 271600
2020082716 - METAR SBFZ 271600Z 10021KT 9999 FEW030 30/19 Q1012=
2020082716 - SABZ21 SBFZ 271600
2020082716 - METAR SBFZ 271600Z 10021KT 9999 FEW030 30/19 Q1012=
2020082716 - SABZ21 SBFZ 271600
2020082716 - METAR SBFZ 271600Z 10021KT 9999 FEW030 30/19 Q1012=
2020082716 - SABZ21 SBFZ 271600
2020082716 - METAR SBFZ 271600Z 10021KT 9999 FEW030 30/19 Q1012=
2020082716 - SABZ21 SBFZ 271600
2020082716 - METAR SBFZ 271600Z 10021KT 9999 FEW030 30/19 Q1012=
2020082716 - SABZ21 SBFZ 271600
2020082716 - METAR SBFZ 271600Z 10021KT 9999 FEW030 30/19 Q1012=
2020082716 - SABZ21 SBFZ 271600
2020082716 - METAR SBFZ 271600Z 10021KT 9999 FEW030 30/19 Q1012=
2020082716 - SABZ21 SBFZ 271600
2020082716 - METAR SBFZ 271600Z 10021KT 9999 FEW030 30/19 Q1012=
2020082716 - SABZ21 SBFZ 271600
2020082716 - METAR SBFZ 271600Z 10021KT 9999 FEW030 30/19 Q1012=
2020082716 - SABZ21 SBFZ 271600
2020082716 - METAR SBFZ 271600Z 10021KT 9999 FEW030 30/19 Q1012=
2020082716 - SABZ21 SBFZ 271600
2020082716 - METAR SBFZ 271600Z 10021KT 9999 FEW030 30/19 Q1012=
2020082716 - SABZ21 SBFZ 271600
2020082716 - METAR SBFZ 271600Z 10021KT 9999 FEW030 30/19 Q1012=
2020082716 - SABZ21 SBFZ 271600
2020082716 - METAR SBFZ 271600Z 10021KT 9999 FEW030 30/19 Q1012=
2020082716 - SABZ21 SBFZ 271600
2020082716 - METAR SBFZ 271600Z 10021KT 9999 FEW030 30/19 Q1012=
2020082716 - SABZ21 SBFZ 271600
2020082716 - METAR SBFZ 271600Z 10021KT 9999 FEW030 30/19 Q1012=
2020082716 - SABZ21 SBFZ 271600
2020082716 - METAR SBFZ 271600Z 10021KT 9999 FEW030 30/19 Q1012=
2020082716 - SABZ21 SBFZ 271600
2020082716 - METAR SBFZ 271600Z 10021KT 9999 FEW030 30/19 Q1012=
2020082716 - SABZ21 SBFZ 271600
2020082716 - METAR SBFZ 271600Z 10021KT 9999 FEW030 30/19 Q1012=
2020082716 - SABZ21 SBFZ 271600
2020082716 - METAR SBFZ 271600Z 10021KT 9999 FEW030 30/19 Q1012=
2020082716 - SABZ21 SBFZ 271600
2020082716 - METAR SBFZ 271600Z 10021KT 9999 FEW030 30/19 Q1012=
2020082716 - SABZ21 SBFZ 271600
2020082716 - METAR SBFZ 271600Z 10021KT 9999 FEW030 30/19 Q1012=
