
2020071200 - SAXX99 SBBR 120000
2020071200 - METAR SBFZ 120000Z 09008KT 9999 SCT021 SCT080 27/22 Q1013=
2020071201 - SABZ21 SBFZ 120100
2020071201 - METAR SBFZ 120100Z 09008KT 9999 BKN021 27/22 Q1013=
2020071202 - SABZ21 SBFZ 120200
2020071202 - METAR SBFZ 120200Z 08009KT 9999 BKN017 27/23 Q1013=
2020071203 - SABZ21 SBFZ 120300
2020071203 - METAR SBFZ 120300Z 09008KT 9999 BKN017 27/23 Q1013=
2020071204 - SABZ21 SBFZ 120400
2020071204 - METAR SBFZ 120400Z 10008KT 9999 FEW017 BKN090 26/23 Q1012=
2020071205 - SABZ21 SBFZ 120500
2020071205 - METAR SBFZ 120500Z 12007KT 9999 BKN017 26/23 Q1012=
2020071206 - SABZ21 SBFZ 120600
2020071206 - METAR SBFZ 120600Z 15004KT 9999 BKN017 26/23 Q1012=
2020071207 - SABZ21 SBFZ 120700
2020071207 - METAR SBFZ 120700Z 16004KT 9999 BKN020 26/23 Q1012=
2020071208 - SABZ21 SBFZ 120800
2020071208 - METAR SBFZ 120800Z 15005KT 9999 FEW020 BKN100 25/22 Q1013=
2020071209 - SABZ21 SBFZ 120900
2020071209 - METAR SBFZ 120900Z 15006KT 9999 FEW020 BKN100 25/22 Q1013=
2020071210 - SABZ21 SBFZ 121000
2020071210 - METAR SBFZ 121000Z 15008KT 9999 FEW020 SCT100 26/21 Q1014=
2020071211 - SABZ21 SBFZ 121100
2020071211 - METAR SBFZ 121100Z 14012KT 9999 FEW020 SCT100 27/21 Q1015=
2020071212 - SABZ21 SBFZ 121200
2020071212 - METAR SBFZ 121200Z 15011KT 9999 SCT023 28/21 Q1014=
2020071213 - SABZ21 SBFZ 121300
2020071213 - METAR SBFZ 121300Z 13014KT 9999 BKN030 29/21 Q1014=
2020071214 - SABZ21 SBFZ 121400
2020071214 - METAR SBFZ 121400Z 13012KT 9999 BKN030 29/21 Q1014=
2020071215 - SABZ21 SBFZ 121500
2020071215 - METAR SBFZ 121500Z 11013KT 9999 BKN030 30/21 Q1013=
2020071216 - SABZ21 SBFZ 121600
2020071216 - METAR SBFZ 121600Z 10014KT 9999 SCT025 FEW030TCU 28/22 Q1013=
2020071217 - SABZ21 SBFZ 121700
2020071217 - METAR SBFZ 121700Z 09013KT 9999 SCT020 BKN070 28/22 Q1012=
2020071218 - SABZ21 SBFZ 121800
2020071218 - METAR SBFZ 121800Z 11013KT 9999 SCT020 BKN060 28/21 Q1012=
2020071219 - SABZ21 SBFZ 121900
2020071219 - METAR SBFZ 121900Z 08014KT 9999 FEW030 BKN070 27/22 Q1012=
2020071220 - SABZ21 SBFZ 122000
2020071220 - METAR SBFZ 122000Z 10013KT 9999 SCT020 SCT090 27/22 Q1012=
2020071221 - SABZ21 SBFZ 122100
2020071221 - METAR SBFZ 122100Z 11008KT CAVOK 26/21 Q1012=
2020071222 - SABZ21 SBFZ 122200
2020071222 - METAR SBFZ 122200Z 10009KT CAVOK 26/22 Q1013=
2020071223 - SABZ21 SBFZ 122300
2020071223 - METAR SBFZ 122300Z 10009KT CAVOK 26/22 Q1013=
